{
    "links": {
        "self": "http://www.neowsapp.com/rest/v1/neo/54097667?api_key=iIulBulltgU6a56xZRHN4H3l9WmuAYTsLGpBGhQ2"
    },
    "id": "54097667",
    "neo_reference_id": "54097667",
    "name": "(2020 XA)",
    "designation": "2020 XA",
    "nasa_jpl_url": "http://ssd.jpl.nasa.gov/sbdb.cgi?sstr=54097667",
    "absolute_magnitude_h": 23.463,
    "estimated_diameter": {
        "kilometers": {
            "estimated_diameter_min": 0.0539454694,
            "estimated_diameter_max": 0.1206257367
        },
        "meters": {
            "estimated_diameter_min": 53.9454694243,
            "estimated_diameter_max": 120.6257367109
        },
        "miles": {
            "estimated_diameter_min": 0.0335201503,
            "estimated_diameter_max": 0.0749533346
        },
        "feet": {
            "estimated_diameter_min": 176.9864539061,
            "estimated_diameter_max": 395.7537420306
        }
    },
    "is_potentially_hazardous_asteroid": false,
    "close_approach_data": [
        {
            "close_approach_date": "2020-11-28",
            "close_approach_date_full": "2020-Nov-28 02:47",
            "epoch_date_close_approach": 1606531620000,
            "relative_velocity": {
                "kilometers_per_second": "15.1165534403",
                "kilometers_per_hour": "54419.5923850019",
                "miles_per_hour": "33814.2183905585"
            },
            "miss_distance": {
                "astronomical": "0.0538145642",
                "lunar": "20.9338654738",
                "kilometers": "8050544.179298254",
                "miles": "5002376.1897497452"
            },
            "orbiting_body": "Earth"
        }
    ],
    "orbital_data": {
        "orbit_id": "1",
        "orbit_determination_date": "2020-12-03 05:19:53",
        "first_observation_date": "2020-11-23",
        "last_observation_date": "2020-12-03",
        "data_arc_in_days": 10,
        "observations_used": 20,
        "orbit_uncertainty": "8",
        "minimum_orbit_intersection": ".0454356",
        "jupiter_tisserand_invariant": "3.907",
        "epoch_osculation": "2459184.5",
        "eccentricity": ".4179714539679959",
        "semi_major_axis": "1.761534541728034",
        "inclination": "25.60300873293342",
        "ascending_node_longitude": "63.79418591309433",
        "orbital_period": "853.9553669131643",
        "perihelion_distance": "1.02526338810712",
        "perihelion_argument": "12.69697930438479",
        "aphelion_distance": "2.497805695348947",
        "perihelion_time": "2459192.269002366452",
        "mean_anomaly": "356.7248395404638",
        "mean_motion": ".4215677000793498",
        "equinox": "J2000",
        "orbit_class": {
            "orbit_class_type": "AMO",
            "orbit_class_description": "Near-Earth asteroid orbits similar to that of 1221 Amor",
            "orbit_class_range": "1.017 AU < q (perihelion) < 1.3 AU"
        }
    },
    "is_sentry_object": false
}